IRIDIUM 33 DEB          
1 38241U 97051ZR  26060.99386918  .00003051  00000+0  69656-3 0  9990
2 38241  86.3244 315.6351 0004295 121.7182 238.4444 14.55502392613536
IRIDIUM 33 DEB          
1 38474U 97051AAB 26054.51272622  .00002644  00000+0  65939-3 0  9992
2 38474  86.3472 338.3518 0024339 199.6569 160.3701 14.51138309663733
IRIDIUM 33 DEB          
1 39777U 97051AAJ 26061.17254602  .00013498  00000+0  28248-2 0  9997
2 39777  85.9623 136.4385 0056256 275.5065  83.9729 14.58696870613420
IRIDIUM 33 DEB          
1 39778U 97051AAK 26061.57184095  .00005265  00000+0  12167-2 0  9996
2 39778  86.3813   8.5458 0009550 105.6953 254.5308 14.55033378618532
IRIDIUM 33 DEB          
1 39781U 97051AAN 26032.33613083  .00009026  00000+0  35030-2 0  9999
2 39781  86.3718 237.1194 0171293 110.1022  68.5667 14.22082273 88252
IRIDIUM 33 DEB          
1 40996U 97051ABJ 26060.72058470  .00046825  00000+0  33888-2 0  9993
2 40996  86.3492 324.3002 0011110 100.8093 289.4030 15.03751251636721
IRIDIUM 33 DEB          
1 40998U 97051ABL 26061.19796507  .00002169  00000+0  61070-3 0  9995
2 40998  86.3852  19.6932 0007637 156.5060 267.9664 14.45426751 78295
IRIDIUM 33 DEB          
1 46435U 97051ABN 26035.13540543  .00025972  00000+0  70928-2 0  9997
2 46435  86.2792 170.9115 0198271 102.1484  74.9261 14.36167469 86819
IRIDIUM 33 DEB          
1 46734U 97051ABR 26032.14744623  .00002827  00000+0  84278-3 0  9990
2 46734  86.2663 340.7289 0039381 162.3242 255.9620 14.42316373637373
IRIDIUM 33 DEB          
1 46965U 97051ABX 26060.65883108  .00003436  00000+0  69418-3 0  9991
2 46965  86.3348 305.6925 0021197  59.7004 329.2666 14.60997813634206
IRIDIUM 33 DEB          
1 46971U 97051ACD 26046.17100049  .00032805  00000+0  24317-2 0  9995
2 46971  86.3384 302.6959 0018324 121.5358  29.3036 15.02823090651968
IRIDIUM 33 DEB          
1 46972U 97051ACE 26044.68140226  .00002565  00000+0  64340-3 0  9992
2 46972  86.3900  12.2992 0007091 258.5659 223.6549 14.51029384624851
IRIDIUM 33 DEB          
1 46974U 97051ACG 26050.81448888  .00008465  00000+0  22535-2 0  9995
2 46974  86.2960  75.0684 0088187 318.5740  40.8797 14.46114347585067
